ONEWEB-0549             
1 56051U 23043F   26025.09958470  .00000145  00000+0  31958-3 0  9994
2 56051  87.9207 272.5296 0001315  83.4327 276.6957 13.21827239139320
ONEWEB-0550             
1 56052U 23043G   26025.23780844  .00000084  00000+0  17129-3 0  9995
2 56052  87.9206 272.4971 0001651  76.0621 284.0696 13.21824797139348
ONEWEB-0551             
1 56053U 23043H   26025.24352271  .00000194  00000+0  48022-3 0  9994
2 56053  87.8994 287.7674 0001262  86.5109 273.6166 13.15549072137602
ONEWEB-0552             
1 56054U 23043J   26025.23287587  .00000046  00000+0  80214-4 0  9997
2 56054  87.9205 272.5068 0001335  72.1962 287.9318 13.21826192139345
ONEWEB-0553             
1 56055U 23043K   26025.15564277  .00000131  00000+0  31023-3 0  9991
2 56055  87.9019 257.2506 0001889  84.8893 275.2454 13.16592745140153
ONEWEB-0554             
1 56056U 23043L   26025.14296686 -.00000195  00000+0 -54281-3 0  9990
2 56056  87.9012 257.2639 0001669  73.1933 286.9381 13.16594047140139
ONEWEB-0555             
1 56057U 23043M   26025.10498428  .00000027  00000+0  37991-4 0  9997
2 56057  87.9017 257.2561 0001967  89.5479 270.5878 13.16595460140136
ONEWEB-0557             
1 56058U 23043N   26025.11923482 -.00000135  00000+0 -38576-3 0  9993
2 56058  87.9013 257.2647 0002689  68.4099 291.7318 13.16595697140130
